#dP2024  3  5 18  0  0.00000000      96 __u+U IGS20 EXT  IAC
## 2304 237600.00000000   900.00000000 60374 0.7500000000000
+  118   C06C07C08C09C10C11C12C13C14C16C19C20C21C22C23C24C25
+        C26C27C28C29C30C32C33C34C35C36C37C38C39C40C41C42C43
+        C44C45C46E02E03E04E05E07E08E09E10E11E12E13E14E15E18
+        E19E21E24E25E26E27E30E31E33E34E36G01G02G03G04G05G06
+        G07G08G09G10G11G12G13G14G15G16G17G18G19G20G21G22G23
+        G24G25G26G27G28G29G30G31G32J02J04R01R02R03R04R05R07
+        R08R09R11R12R13R14R15R16R17R18R19R20R21R22R24R26  0
++         9  9 11  9  8  9  7 11  9  9  8  9  8  8  8  9 10
++         9  9  8 10  9  8  8  8 12  8  8  8 12  9  8  7  7
++         8  8  8  8  8  9  7  7  8  7  8  9 10  9  7  9  8
++         8  7  8  7  8  8  7  7 10  9  7  7  8  6  8  8  7
++         9  9  7  7  7  9  7  8  7  7  8  7  7  7  8  8  7
++         8  8  6  7  7  7  8  8  7  9  8  8  7  8  8  8  9
++         7  9  8  9  8  7  8  8 10 10  9  9 10  8  9 14  0
%c M  cc GPS ccc cccc cccc cccc cccc ccccc ccccc ccccc ccccc
%c cc cc ccc ccc cccc cccc cccc cccc ccccc ccccc ccccc ccccc
%f  0.0000000  0.000000000  0.00000000000  0.000000000000000
%f  0.0000000  0.000000000  0.00000000000  0.000000000000000
%i    0    0    0    0      0      0      0      0         0
%i    0    0    0    0      0      0      0      0         0
/* IAC                                ULTRA-RAPID PREDICTION
/* S/V CLOCKS ARE ALIGNED TO GNSS TIME                      
/* G:C1WC2W R:C1PC2P E:C1XC5X C:C2IC6I J:C1CC2S             
/* PCV:IGS20_2290 OL/AL:FES2004  NONE     YN ORB:CoN CLK:CoN
*  2024 03 06  0 30  0.00000000
PC06 -12314.250473  23697.794514  32618.222320    253.490539
PC07 -13670.440613  39977.732809  -1332.502254   -909.198723
PC08    876.170357  30336.040524 -29164.559906    -13.863178
PC09  -3184.667792  24504.232232  34582.021369   -581.053602
PC10  -7924.788800  40932.418192  -7689.890112     57.402786
PC11   9999.243955 -17198.733600  19635.657115    444.966567
PC12  24846.115134 -11948.290137   4381.035852   -206.978820
PC13   7524.421356  34376.755355 -22838.078667    422.740800
PC14   5437.456749 -27289.149408   1653.410759    340.001046
PC16 -16115.240841  22594.247184  31916.553221   -379.123741
PC19    958.527834  26844.212083   7646.635392   -921.331536
PC20 -10076.528744  24419.784687  -9030.562265   -228.104664
PC21  16038.460496  -6793.611121  21816.271721   -961.426308
PC22  12066.332655  14024.061228  20904.143556    -85.404892
PC23 -21615.526382 -17653.857979   -178.847089   -777.518202
PC24  10314.026289 -12693.898026 -22631.178302    945.368938
PC25  -8892.754398 -21225.801679 -15812.289653    342.397097
PC26  22505.047332   2521.938494 -16305.725285   -258.658324
PC27 -26717.854175   6774.299453   4292.348035    280.591852
PC28 -20711.255742  -5594.218313  17848.783468    213.822677
PC29    807.710586  16694.110097 -22352.229159    250.695799
PC30 -18813.376222  16880.063753 -11807.000858    -34.001717
PC32 -15981.271993   6880.259653 -21801.009976   -578.133428
PC33  -1052.623113 -26844.225568  -7505.684921   -954.706433
PC34  17598.787740 -17306.827091  13030.923836    383.812055
PC35  20860.640252   4969.518274 -17893.716420    418.028836
PC36   7995.334021  21354.428555  16095.141435      8.367367
PC37 -22617.992490  -3435.978680  16000.425749   -941.733699
PC38  -6466.041781  26350.113671 -32179.814301    140.936392
PC39 -22148.831124  21915.348769  28360.294571     -7.438885
PC40 -20472.622866  37018.109900    834.566494    -59.465550
PC41 -11762.654290 -14787.886898 -20471.370271   -900.783734
PC42  10916.630585 -23410.318248  10569.009517   -449.012050
PC43    244.668157 -17083.562970  22057.268366     63.009726
PC44  26486.307511  -7637.858058  -4484.172254    404.551566
PC45  21626.386570  17616.252402     17.335493    -74.044351
PC46  -9498.690866  13166.757053  22683.781141   -129.267199
PE02 -17926.696620  -3733.472879  23248.679855    108.836803
PE03 -22859.769521   6787.711853 -17541.626466    -98.290027
PE04  20167.785663 -21664.450734    309.734037   -342.859323
PE05 -12153.435654 -11825.070420 -24253.891674   4726.336543
PE07  -6085.453885  23768.719339  16574.406169   -107.317501
PE08 -20495.124343  21340.969018  -1003.936262   -234.331578
PE09   6252.300611 -23723.735199 -16546.150343   -360.014703
PE10   8365.817241 -14279.494795  24538.013281   -607.066347
PE11  -3822.875205 -16790.081588  24064.528753   3198.235306
PE12  18055.194979 -10001.520341  21226.165524   -935.563825
PE13   3122.372490  16650.561778 -24269.665876    -20.420611
PE14  -5523.691749 -15705.191218  17695.230922     58.248087
PE15 -18500.106082   9664.363293 -20974.476427    -89.567749
PE18    794.814814  23990.152026 -20899.314811    402.437559
PE19  22212.816043  -4665.897637  19013.228203   -487.904383
PE21  15516.233753  22201.932872 -11939.300560   -582.437801
PE24  -3515.557345 -28514.724437  -7198.507789   -635.069314
PE25 -15352.185097 -22505.374976  11582.501947      1.744641
PE26  22981.644270  13632.374184 -12737.541201    388.047918
PE27   3900.137435  28526.531487   6835.131440   -291.414972
PE30 -10095.620159  17748.835847  21406.134575    -65.099713
PE31   9873.473676 -17967.260769 -21355.017537    -17.560334
PE33  29012.320937   3239.176780   4914.054084      8.593064
PE34 -28958.306904  -2825.739974  -5441.799676    -98.346858
PE36 -22526.564324 -13795.990341  13344.281897   -195.191464
PG01  21464.752541  12048.198641 -10755.588637    172.506373
PG02  14886.163093  13521.349163 -16994.566620   -474.963009
PG03  12157.239468  22723.350720   6543.433292    234.566010
PG04   7339.323878  13859.289853  21434.090937    307.923296
PG05  -5349.120952 -25203.406122   6074.890875   -164.307684
PG06  19490.945311  -7034.253403  16745.691940    380.176194
PG07  26154.136899   5928.848776    839.294810    -77.570173
PG08    373.231072  19487.040932 -17944.362157     33.637666
PG09  17490.708333    945.398107  19902.869299    114.628868
PG10 -13134.534280   6702.487585 -21865.094824      0.687207
PG11   7772.037219 -13412.096897  21586.165551   -597.563936
PG12 -10260.795813 -23805.926512   5650.604585   -484.414504
PG13   9994.382726 -20613.583140 -13446.510350    631.561791
PG14  15409.345230  -2556.154373 -21467.288436    343.051349
PG15  -2954.557068 -19764.306570 -17888.213954    134.616385
PG16  -1643.735849  24012.012957  10372.291198   -347.810459
PG17  21473.222552 -10711.094151 -11129.718333    714.733863
PG18 -26154.277777  -5070.389255  -1041.413869   -569.657216
PG19  20704.743105 -16046.676577  -3138.889262    449.923369
PG20   2704.571169 -20338.442777  17015.172915    385.012309
PG21  10101.118836  14763.810163 -19467.706277    132.473806
PG22  11919.193421 -11472.097776 -20417.775392     20.539250
PG23 -16599.434581  -6817.023110 -19622.667286    170.626494
PG24 -12573.916604 -15065.665646 -18489.652194   -442.073897
PG25 -16050.298929 -16024.604810  13695.007827    490.513176
PG26  -8064.684144  16683.400149  18746.250453    182.894758
PG27 -10766.755159  22256.843161  -9371.384652     -9.549087
PG28 -21362.117518   6548.769995  14336.325875   -154.037126
PG29 -16120.945618  -3999.939498  20697.551265   -605.528268
PG30  24677.039017  -2292.510246  -9779.957132   -423.724292
PG31 -13411.045979  11361.588189  19815.605189   -227.935020
PG32 -20458.715154  14022.585842  -9003.149652   -614.729104
PJ02 -27467.684230  24360.447165  25824.015724     -2.616434
PJ04 -20279.143295  33753.160848  -9925.592567     50.758339
PR01  11845.806425  -1832.364077  22521.887367     78.917319
PR02  12874.810798 -18080.056223  12681.060330    -22.545519
PR03   6379.733575 -24321.712065  -4420.243422     95.821548
PR04  -3062.971293 -16998.383108 -18741.516707    226.306610
PR05 -11070.170904   -679.083527 -22951.488470    127.959836
PR07  -5848.398516  24202.411712   5469.703426     77.302577
PR08   3505.296931  16757.359222  18961.803558    -74.661607
PR09  -9904.634513   5898.728667  22763.665725    173.703405
PR11  15044.471630  20166.687415   4256.994543     32.204529
PR12  18226.562351  10424.068761 -14455.151397     37.472061
PR13  11494.081762  -3380.608913 -22538.390648    -45.015597
PR14  -3980.467878 -17697.721342 -17919.769473     26.181535
PR15 -15596.496268 -19998.958791  -2699.708981     81.607341
PR16 -18259.460397 -10583.535505  14304.821933     23.785906
PR17   6471.929003 -11334.235532  21917.356482     66.574344
PR18 -11196.526409  -7944.495141  21499.457926    130.681509
PR19 -22658.195505  -2063.261833  11528.955718   -268.300838
PR20 -22536.427130   7283.132497  -9400.066113   -109.325332
PR21  -6437.505820  11200.738334 -21997.369570    -82.245836
PR22  12189.139823   8219.625512 -20823.938228    111.344267
PR24  21886.787164  -8625.016315   9869.216336    -46.623942
PR26   2984.916392  17563.275186  18292.155067   -195.097256
EOF
